ORBCOMM FM33            
1 25983U 99065D   25364.74358334  .00002141  00000+0  70960-3 0  9995
2 25983  45.0269 144.0894 0007342 326.9794  33.0596 14.40580261364405
ORBCOMM FM36            
1 25984U 99065E   25364.05849040  .00001638  00000+0  57428-3 0  9993
2 25984  45.0381 242.2461 0001940 213.1524 146.9203 14.38760552362629
ORBCOMM FM35            
1 25985U 99065F   25364.73853499  .00001636  00000+0  58624-3 0  9999
2 25985  45.0384 245.6581 0004197 313.6453  46.4047 14.37666970363064
ORBCOMM FM34            
1 25986U 99065G   25364.35831803  .00001326  00000+0  48485-3 0  9993
2 25986  45.0381 247.9328 0003511 264.4905  95.5543 14.37609912363126
ORBCOMM FM38            
1 33060U 08031A   25351.76850136  .00001404  00000+0  20080-3 0  9997
2 33060  48.4372 159.8035 0004435 120.0486 240.0870 14.82282580941971
ORBCOMM FM41            
1 33061U 08031B   25364.37468539  .00004056  00000+0  53342-3 0  9994
2 33061  48.4421 108.1090 0003776 162.8336 240.7233 14.81906070943327
ORBCOMM FM29            
1 33062U 08031C   25364.69844396  .00004613  00000+0  60065-3 0  9998
2 33062  48.4377 114.1064 0005454 160.3400 342.0441 14.82060293943287
